STARLINK-34802          
1 65067C 25165M   26083.27895833 -.00034576  00000+0 -24011-2 0   837
2 65067  97.6025 161.5949 0000675 148.9835 248.1320 15.05666269    13
STARLINK-34810          
1 65068C 25165N   26083.27479167 -.00030431  00000+0 -21133-2 0   834
2 65068  97.6023 161.5716 0001105  97.9957 231.5587 15.05662581    15
STARLINK-34809          
1 65069C 25165P   26083.26368056 -.00023144  00000+0 -16071-2 0   836
2 65069  97.6025 161.5753 0001526  82.7484 216.6178 15.05661512    16
STARLINK-34794          
1 65070C 25165Q   26083.25812500 -.00020743  00000+0 -14403-2 0   834
2 65070  97.6024 161.5350 0001691  85.9213 108.3739 15.05662715    14
STARLINK-34805          
1 65071C 25165R   26083.31993056 -.00031840  00000+0 -22110-2 0   832
2 65071  97.6022 161.6105 0000453  48.2217 150.7637 15.05666887    15
STARLINK-34735          
1 65072C 25165S   26083.39354167 -.00043271  00000+0 -30054-2 0   832
2 65072  97.6022 161.7461 0000044  44.7975 342.9354 15.05664505    16
STARLINK-34781          
1 65073C 25165T   26083.34076389 -.00055480  00000+0 -38530-2 0   837
2 65073  97.6030 161.7515 0000700 108.8455 128.0333 15.05674577    10
STARLINK-34780          
1 65074C 25165U   26083.30118056 -.00045792  00000+0 -31801-2 0   831
2 65074  97.6023 161.6049 0000804  94.4988  32.9995 15.05670467    11
STARLINK-34771          
1 65078C 25167A   26083.26506944 -.00099624  00000+0 -33596-2 0   835
2 65078  53.1605 316.4328 0001237  86.2797  58.2426 15.30222656    17
STARLINK-34634          
1 65079C 25167B   26083.32895833 -.00002501  00000+0 -84268-4 0   833
2 65079  53.1592 316.2761 0001413  81.8574 344.8234 15.30205144    16
STARLINK-34267          
1 65080C 25167C   26083.33173611 -.00016143  00000+0 -54415-3 0   836
2 65080  53.1569 316.4222 0001158  72.9141 287.6408 15.30194680    12
STARLINK-34561          
1 65081C 25167D   26083.33104167 -.00017426  00000+0 -58732-3 0   838
2 65081  53.1603 316.0440 0001279  80.1154 108.5595 15.30199644    12
STARLINK-34626          
1 65082C 25167E   26083.30673611 -.00021130  00000+0 -71223-3 0   838
2 65082  53.1598 318.5698 0001124  84.1602 205.4748 15.30198272    12
STARLINK-34247          
1 65083C 25167F   26083.33312500 -.00013337  00000+0 -44946-3 0   831
2 65083  53.1601 316.1863 0001285  91.7352  32.8084 15.30201292    12
STARLINK-34601          
1 65084C 25167G   26083.27201389 -.00004219  00000+0 -14210-3 0   837
2 65084  53.1584 319.0864 0000996  87.6668 149.6052 15.30216234    12
STARLINK-34792          
1 65085C 25167H   26083.35326389 -.00011955  00000+0 -40298-3 0   835
2 65085  53.1605 318.9488 0001426  94.4264 108.5295 15.30193607    15
STARLINK-34822          
1 65086C 25167J   26083.37965278  .00046403  00000+0  15618-2 0   835
2 65086  53.1606 318.7916 0001619  92.8528 273.0005 15.30212300    19
STARLINK-34686          
1 65087C 25167K   26083.30673611 -.00019461  00000+0 -65593-3 0   830
2 65087  53.1605 319.0958 0001443  89.7144 251.6954 15.30199979    14
STARLINK-34594          
1 65088C 25167L   26083.26645833 -.00022059  00000+0 -74335-3 0   832
2 65088  53.1605 319.2481 0001607  88.1671  48.7383 15.30206988    18
STARLINK-34665          
1 65089C 25167M   26083.31784722 -.00014131  00000+0 -47625-3 0   834
2 65089  53.1604 318.9743 0001283  83.7770 353.7730 15.30199480    19
STARLINK-34673          
1 65090C 25167N   26083.40048611  .00014250  00000+0  48025-3 0   831
2 65090  53.1600 318.5559 0001648  74.9685 115.5226 15.30186152    16
STARLINK-34648          
1 65091C 25167P   26083.32340278 -.00019027  00000+0 -64120-3 0   830
2 65091  53.1592 318.8913 0000709 101.4924  35.7696 15.30205035    19
STARLINK-34640          
1 65092C 25167Q   26083.26854167 -.00026390  00000+0 -88884-3 0   835
2 65092  53.1588 319.1235 0001253  85.7436 120.7661 15.30226452    16
STARLINK-34266          
1 65093C 25167R   26083.33104167 -.00019170  00000+0 -64631-3 0   834
2 65093  53.1585 318.7980 0001035  79.3407 129.0989 15.30191459    14
STARLINK-34769          
1 65094C 25167S   26083.26090278 -.00012373  00000+0 -41706-3 0   830
2 65094  53.1575 319.0899 0001411  86.3309 112.9693 15.30194756    10
STARLINK-34768          
1 65095C 25167T   26083.30951389 -.00016164  00000+0 -54491-3 0   832
2 65095  53.1572 318.8292 0000792  91.7830  32.9018 15.30193264    17
STARLINK-34759          
1 65096C 25167U   26083.38520833  .00003673  00000+0  12377-3 0   833
2 65096  53.1571 318.4424 0000786 118.5166  80.8413 15.30193352    12
STARLINK-34741          
1 65097C 25167V   26083.25604167 -.00029711  00000+0 -10007-2 0   833
2 65097  53.1566 319.0088 0000818  60.3067 164.5599 15.30227790    19
STARLINK-34764          
1 65098C 25167W   26083.40395833  .00014681  00000+0  49484-3 0   838
2 65098  53.1566 318.2859 0000874  85.7342 251.8647 15.30183002    17
STARLINK-34815          
1 65099C 25167X   26083.30187500 -.00015537  00000+0 -52371-3 0   830
2 65099  53.1564 318.7726 0000853  94.2457  34.8830 15.30195361    17
STARLINK-34814          
1 65100C 25167Y   26083.28381944 -.00012556  00000+0 -42296-3 0   831
2 65100  53.1566 318.8098 0001018  92.6375 320.2348 15.30215366    14
STARLINK-34285          
1 65101C 25167Z   26083.29979167 -.00016715  00000+0 -56327-3 0   834
2 65101  53.1568 318.7001 0001326  84.1108  74.2398 15.30204260    14
STARLINK-34857          
1 65102C 25167AA  26083.32062500 -.00020355  00000+0 -68609-3 0   834
2 65102  53.1585 318.5205 0001230  97.9297 215.9706 15.30199285    10
STARLINK-34887          
1 65103C 25167AB  26083.27201389 -.00013305  00000+0 -44840-3 0   837
2 65103  53.1577 318.7711 0001611  50.0133 344.3154 15.30200480    12
STARLINK-34481          
1 65104C 25167AC  26083.29631944 -.00019580  00000+0 -65994-3 0   838
2 65104  53.1590 318.5985 0001202  79.5456 117.8345 15.30199986    12
STARLINK-34545          
1 65105C 25167AD  26083.31576389 -.00019473  00000+0 -65631-3 0   832
2 65105  53.1594 318.4738 0001438  95.8275 226.1756 15.30201654    19
STARLINK-34956          
1 65174C 25175A   26083.26159722 -.00059890  00000+0 -41595-2 0   838
2 65174  97.6030 316.9432 0003417  83.5952  79.3555 15.05669972    10
STARLINK-34949          
1 65175C 25175B   26083.25465278 -.00058642  00000+0 -40724-2 0   831
2 65175  97.6030 316.9429 0002492  77.0425  63.2754 15.05675383    18
STARLINK-34707          
1 65176C 25175C   26083.40604167  .00001150  00000+0  79841-4 0   835
2 65176  97.6028 317.0985 0002617  65.4170 189.9694 15.05640906    14
STARLINK-34967          
1 65177C 25175D   26083.36159722 -.00028245  00000+0 -19621-2 0   837
2 65177  97.6028 317.0615 0002579  81.4825 308.1578 15.05648780    11
STARLINK-34929          
1 65178C 25175E   26083.27965278 -.00055873  00000+0 -38796-2 0   830
2 65178  97.6029 316.9866 0002784  83.5223 237.1991 15.05677532    19
STARLINK-34932          
1 65179C 25175F   26083.29701389 -.00058521  00000+0 -40656-2 0   835
2 65179  97.6030 317.0167 0002234  88.1601 356.6347 15.05660616    16
STARLINK-34862          
1 65180C 25175G   26083.30187500 -.00059680  00000+0 -41450-2 0   832
2 65180  97.6031 317.0278 0002398  82.4821  43.6259 15.05670934    13
STARLINK-34942          
1 65181C 25175H   26083.33590278 -.00041655  00000+0 -28915-2 0   830
2 65181  97.6028 317.0489 0002918  82.2271 198.1502 15.05680983    11
STARLINK-34944          
1 65182C 25175J   26083.40326389 -.00004781  00000+0 -33203-3 0   835
2 65182  97.6031 317.1342 0002340  84.4682 245.8527 15.05647472    17
STARLINK-34939          
1 65183C 25175K   26083.39631944 -.00006964  00000+0 -48378-3 0   834
2 65183  97.6032 317.1336 0001559  87.8408 219.8709 15.05636813    16
STARLINK-34947          
1 65184C 25175L   26083.28243056 -.00059290  00000+0 -41184-2 0   833
2 65184  97.6036 317.0272 0001827  70.7218 354.9301 15.05668167    13
STARLINK-34945          
1 65185C 25175M   26083.25881944 -.00053152  00000+0 -36912-2 0   839
2 65185  97.6038 317.0100 0002174  84.6380 228.2284 15.05672630    19
STARLINK-34965          
1 65186C 25175N   26083.28243056 -.00060123  00000+0 -41752-2 0   833
2 65186  97.6041 317.0467 0002325  76.9365  33.8200 15.05677132    15
STARLINK-34915          
1 65187C 25175P   26083.35673611 -.00035011  00000+0 -24314-2 0   839
2 65187  97.6039 317.1135 0002309  84.6071  53.6625 15.05662115    14
STARLINK-34972          
1 65188C 25175Q   26083.26229167 -.00053494  00000+0 -37148-2 0   837
2 65188  97.6040 317.0334 0001642  92.1540 284.5052 15.05674517    19
STARLINK-34866          
1 65189C 25175R   26083.31020833 -.00052169  00000+0 -36231-2 0   833
2 65189  97.6038 317.0876 0002416  77.9470 213.2733 15.05670154    19
STARLINK-34917          
1 65190C 25175S   26083.38937500 -.00015230  00000+0 -10578-2 0   834
2 65190  97.6035 317.1725 0001953  78.2317 296.8289 15.05649162    19
STARLINK-34948          
1 65191C 25175T   26083.31298611 -.00049555  00000+0 -34417-2 0   836
2 65191  97.6034 317.0995 0002682  83.2934 252.9703 15.05666673    18
STARLINK-34955          
1 65192C 25175U   26083.40395833 -.00006024  00000+0 -41844-3 0   838
2 65192  97.6031 317.2000 0002231  81.4520  42.6033 15.05641813    15
STARLINK-34950          
1 65193C 25175V   26083.34909722 -.00037786  00000+0 -26245-2 0   836
2 65193  97.6032 317.1526 0002467  89.9118 111.9595 15.05658409    18
STARLINK-34926          
1 65194C 25175W   26083.35951389 -.00027511  00000+0 -19106-2 0   837
2 65194  97.6027 317.1894 0003469  81.5310 236.7520 15.05655373    17
STARLINK-34928          
1 65195C 25175X   26083.35118056 -.00032534  00000+0 -22597-2 0   833
2 65195  97.6029 317.1744 0002355  83.4825 174.6625 15.05656473    17
STARLINK-34927          
1 65196C 25175Y   26083.27131944 -.00058941  00000+0 -40935-2 0   832
2 65196  97.6033 317.0820 0002712  89.6867  65.8584 15.05672375    12
